{
    "links": {
        "self": "http://www.neowsapp.com/rest/v1/neo/3893229?api_key=iIulBulltgU6a56xZRHN4H3l9WmuAYTsLGpBGhQ2"
    },
    "id": "3893229",
    "neo_reference_id": "3893229",
    "name": "(2019 WC)",
    "designation": "2019 WC",
    "nasa_jpl_url": "http://ssd.jpl.nasa.gov/sbdb.cgi?sstr=3893229",
    "absolute_magnitude_h": 26.5,
    "estimated_diameter": {
        "kilometers": {
            "estimated_diameter_min": 0.0133215567,
            "estimated_diameter_max": 0.0297879063
        },
        "meters": {
            "estimated_diameter_min": 13.3215566698,
            "estimated_diameter_max": 29.7879062798
        },
        "miles": {
            "estimated_diameter_min": 0.008277629,
            "estimated_diameter_max": 0.0185093411
        },
        "feet": {
            "estimated_diameter_min": 43.7058959846,
            "estimated_diameter_max": 97.7293544391
        }
    },
    "is_potentially_hazardous_asteroid": false,
    "close_approach_data": [
        {
            "close_approach_date": "2019-11-17",
            "close_approach_date_full": "2019-Nov-17 15:19",
            "epoch_date_close_approach": 1574003940000,
            "relative_velocity": {
                "kilometers_per_second": "7.6169800156",
                "kilometers_per_hour": "27421.1280561777",
                "miles_per_hour": "17038.4225969067"
            },
            "miss_distance": {
                "astronomical": "0.023669895",
                "lunar": "9.207589155",
                "kilometers": "3540965.87512365",
                "miles": "2200254.16766037"
            },
            "orbiting_body": "Earth"
        }
    ],
    "orbital_data": {
        "orbit_id": "5",
        "orbit_determination_date": "2020-01-01 05:52:22",
        "first_observation_date": "2019-11-17",
        "last_observation_date": "2019-11-24",
        "data_arc_in_days": 7,
        "observations_used": 33,
        "orbit_uncertainty": "7",
        "minimum_orbit_intersection": ".024071",
        "jupiter_tisserand_invariant": "3.199",
        "epoch_osculation": "2459000.5",
        "eccentricity": ".5937244400281655",
        "semi_major_axis": "2.491530471489872",
        "inclination": "3.887294447548701",
        "ascending_node_longitude": "53.95034475732837",
        "orbital_period": "1436.473873011721",
        "perihelion_distance": "1.012247937491436",
        "perihelion_argument": "1.855555707669228",
        "aphelion_distance": "3.970813005488306",
        "perihelion_time": "2458806.071037936647",
        "mean_anomaly": "48.72655720222494",
        "mean_motion": ".2506136775361054",
        "equinox": "J2000",
        "orbit_class": {
            "orbit_class_type": "APO",
            "orbit_class_description": "Near-Earth asteroid orbits which cross the Earth’s orbit similar to that of 1862 Apollo",
            "orbit_class_range": "a (semi-major axis) > 1.0 AU; q (perihelion) < 1.017 AU"
        }
    },
    "is_sentry_object": false
}